NORAD_CAT_ID,OBJECT_NAME,OBJECT_TYPE,EPOCH,MEAN_MOTION,ECCENTRICITY,INCLINATION,RA_OF_ASC_NODE,ARG_OF_PERICENTER,MEAN_ANOMALY,BSTAR,MEAN_MOTION_DOT,MEAN_MOTION_DDOT,TLE_LINE0,TLE_LINE1,TLE_LINE2,SEMIMAJOR_AXIS,PERIOD,APOGEE,PERIGEE,DECAYED
52452.0,STARLINK-3909,PAYLOAD,2023-05-09 03:00:57,15.0885368,0.0001328,53.2171,37.8196,88.6654,271.449,0.00018299,2.627e-05,0.0,0 STARLINK-3909,1 52452U 22049B   23129.12566651  .00002627  00000-0  18299-3 0  9993,2 52452  53.2171  37.8196 0001328  88.6654 271.4490 15.08853680 55779,6917.839,95.437,540.622,538.785,0.0
52452.0,STARLINK-3909,PAYLOAD,2023-05-10 01:16:22,15.08844908,0.0001185,53.2169,33.6561,88.9676,271.1452,0.00027511,4.094e-05,0.0,0 STARLINK-3909,1 52452U 22049B   23130.05303439  .00004094  00000-0  27511-3 0  9997,2 52452  53.2169  33.6561 0001185  88.9676 271.1452 15.08844908 55918,6917.865,95.437,540.55,538.911,0.0
52452.0,STARLINK-3909,PAYLOAD,2023-05-10 23:31:45,15.08849746,0.0001216,53.2168,29.4938,86.1205,273.9926,0.00025096,3.709e-05,0.0,0 STARLINK-3909,1 52452U 22049B   23130.98039202  .00003709  00000-0  25096-3 0  9991,2 52452  53.2168  29.4938 0001216  86.1205 273.9926 15.08849746 56058,6917.851,95.437,540.557,538.874,0.0
52452.0,STARLINK-3909,PAYLOAD,2023-05-11 23:22:33,15.08837773,0.00013,53.2163,25.0333,74.5479,285.5657,0.00014525,2.024e-05,0.0,0 STARLINK-3909,1 52452U 22049B   23131.97399969  .00002024  00000-0  14525-3 0  9994,2 52452  53.2163  25.0333 0001300  74.5479 285.5657 15.08837773 56363,6917.887,95.438,540.652,538.853,0.0
52452.0,STARLINK-3909,PAYLOAD,2023-05-12 20:02:34,15.08845846,0.0001318,53.2168,21.1667,74.7849,285.3289,0.00029039,4.337e-05,0.0,0 STARLINK-3909,1 52452U 22049B   23132.83511953  .00004337  00000-0  29039-3 0  9994,2 52452  53.2168  21.1667 0001318  74.7849 285.3289 15.08845846 56333,6917.863,95.437,540.639,538.816,0.0
52452.0,STARLINK-3909,PAYLOAD,2023-05-12 23:13:20,15.08852227,0.0001349,53.2165,20.5723,70.4546,289.6591,0.00046173,7.071e-05,0.0,0 STARLINK-3909,1 52452U 22049B   23132.96759792  .00007071  00000-0  46173-3 0  9999,2 52452  53.2165  20.5723 0001349  70.4546 289.6591 15.08852227 56511,6917.843,95.437,540.641,538.775,0.0
52452.0,STARLINK-3909,PAYLOAD,2023-05-13 21:28:44,15.08845379,0.0001202,53.2171,16.4087,84.7592,275.3537,0.0002286,3.353e-05,0.0,0 STARLINK-3909,1 52452U 22049B   23133.89495938  .00003353  00000-0  22860-3 0  9997,2 52452  53.2171  16.4087 0001202  84.7592 275.3537 15.08845379 56491,6917.864,95.437,540.56,538.897,0.0
52452.0,STARLINK-3909,PAYLOAD,2023-05-13 23:04:07,15.08847213,0.0001178,53.217,16.112,82.7754,277.3372,0.00024851,3.67e-05,0.0,0 STARLINK-3909,1 52452U 22049B   23133.96119866  .00003670  00000-0  24851-3 0  9992,2 52452  53.2170  16.1120 0001178  82.7754 277.3372 15.08847213 56662,6917.858,95.437,540.538,538.908,0.0
52452.0,STARLINK-3909,PAYLOAD,2023-05-14 21:19:31,15.08843224,0.0001164,53.2168,11.9496,85.2556,274.8569,2.9357e-05,1.79e-06,0.0,0 STARLINK-3909,1 52452U 22049B   23134.88855850  .00000179  00000-0  29357-4 0  9992,2 52452  53.2168  11.9496 0001164  85.2556 274.8569 15.08843224 56647,6917.871,95.437,540.541,538.93,0.0
52452.0,STARLINK-3909,PAYLOAD,2023-05-14 22:54:54,15.088476,0.0001128,53.2168,11.6528,86.27,273.8421,-7.3057e-05,-1.451e-05,0.0,0 STARLINK-3909,1 52452U 22049B   23134.95479579 -.00001451  00000-0 -73057-4 0  9992,2 52452  53.2168  11.6528 0001128  86.2700 273.8421 15.08847600 56819,6917.857,95.437,540.502,538.942,0.0
52452.0,STARLINK-3909,PAYLOAD,2023-05-15 08:27:13,15.08838165,0.0001208,53.2172,9.8708,94.4779,265.6351,1.6829e-05,-2e-07,0.0,0 STARLINK-3909,1 52452U 22049B   23135.35224042 -.00000020  00000-0  16829-4 0  9994,2 52452  53.2172   9.8708 0001208  94.4779 265.6351 15.08838165 56872,6917.886,95.438,540.587,538.915,0.0
52452.0,STARLINK-3909,PAYLOAD,2023-05-16 00:21:04,15.08840737,0.0001068,53.2169,6.8955,88.3531,271.7583,5.2246e-05,5.44e-06,0.0,0 STARLINK-3909,1 52452U 22049B   23136.01464086  .00000544  00000-0  52246-4 0  9995,2 52452  53.2169   6.8955 0001068  88.3531 271.7583 15.08840737 56818,6917.878,95.438,540.482,539.004,0.0
52452.0,STARLINK-3909,PAYLOAD,2023-05-16 17:50:19,15.08838204,0.0001039,53.216,3.6248,93.0558,267.0553,4.0712e-05,3.6e-06,0.0,0 STARLINK-3909,1 52452U 22049B   23136.74328292  .00000360  00000-0  40712-4 0  9994,2 52452  53.2160   3.6248 0001039  93.0558 267.0553 15.08838204 57080,6917.886,95.438,540.47,539.032,0.0
52452.0,STARLINK-3909,PAYLOAD,2023-05-17 19:16:30,15.08833962,0.0001153,53.2166,358.8642,80.6862,279.4261,2.2352e-05,6.8e-07,0.0,0 STARLINK-3909,1 52452U 22049B   23137.80312777  .00000068  00000-0  22352-4 0  9998,2 52452  53.2166 358.8642 0001153  80.6862 279.4261 15.08833962 57243,6917.899,95.438,540.561,538.966,0.0
52452.0,STARLINK-3909,PAYLOAD,2023-05-17 20:51:53,15.08839577,0.0001137,53.2173,358.5666,76.3797,283.7322,4.2811e-06,-2.2e-06,0.0,0 STARLINK-3909,1 52452U 22049B   23137.86936925 -.00000220  00000-0  42811-5 0  9995,2 52452  53.2173 358.5666 0001137  76.3797 283.7322 15.08839577 57092,6917.882,95.438,540.533,538.96,0.0
52452.0,STARLINK-3909,PAYLOAD,2023-05-18 01:38:02,15.08836642,0.0001319,53.2178,357.6739,70.944,289.1695,0.00016343,2.314e-05,0.0,0 STARLINK-3909,1 52452U 22049B   23138.06808714  .00002314  00000-0  16343-3 0  9996,2 52452  53.2178 357.6739 0001319  70.9440 289.1695 15.08836642 57122,6917.891,95.438,540.668,538.843,0.0
52452.0,STARLINK-3909,PAYLOAD,2023-05-18 20:42:39,15.08849228,0.0001192,53.218,354.1063,78.9325,281.1801,9.6552e-05,1.249e-05,0.0,0 STARLINK-3909,1 52452U 22049B   23138.86296013  .00001249  00000-0  96552-4 0  9994,2 52452  53.2180 354.1063 0001192  78.9325 281.1801 15.08849228 57244,6917.852,95.437,540.542,538.893,0.0
52452.0,STARLINK-3909,PAYLOAD,2023-05-19 17:22:40,15.08843755,9.08e-05,53.2184,350.2389,96.6148,263.4948,0.00010549,1.392e-05,0.0,0 STARLINK-3909,1 52452U 22049B   23139.72408200  .00001392  00000-0  10549-3 0  9993,2 52452  53.2184 350.2389 0000908  96.6148 263.4948 15.08843755 57536,6917.869,95.437,540.362,539.106,0.0
52452.0,STARLINK-3909,PAYLOAD,2023-05-19 20:33:27,15.08840754,0.0001084,53.2174,349.6457,88.1621,271.9495,0.00012123,1.642e-05,0.0,0 STARLINK-3909,1 52452U 22049B   23139.85656374  .00001642  00000-0  12123-3 0  9992,2 52452  53.2174 349.6457 0001084  88.1621 271.9495 15.08840754 57392,6917.878,95.438,540.493,538.993,0.0
52452.0,STARLINK-3909,PAYLOAD,2023-05-20 20:24:12,15.08858298,0.000104,53.2173,345.1855,91.1906,268.9205,0.00015619,2.2e-05,0.0,0 STARLINK-3909,1 52452U 22049B   23140.85014945  .00002200  00000-0  15619-3 0  9990,2 52452  53.2173 345.1855 0001040  91.1906 268.9205 15.08858298 57540,6917.824,95.436,540.409,538.97,0.0
52452.0,STARLINK-3909,PAYLOAD,2023-05-21 13:53:29,15.08830136,0.0001112,53.2177,341.9137,85.1561,274.9558,-4.2454e-05,-9.63e-06,0.0,0 STARLINK-3909,1 52452U 22049B   23141.57881494 -.00000963  00000-0 -42454-4 0  9995,2 52452  53.2177 341.9137 0001112  85.1561 274.9558 15.08830136 57652,6917.911,95.438,540.545,539.006,0.0
52452.0,STARLINK-3909,PAYLOAD,2023-05-21 17:04:15,15.08828894,9.85e-05,53.2182,341.3183,114.2509,245.8586,-4.9418e-05,-1.074e-05,0.0,0 STARLINK-3909,1 52452U 22049B   23141.71129570 -.00001074  00000-0 -49418-4 0  9992,2 52452  53.2182 341.3183 0000985 114.2509 245.8586 15.08828894 57832,6917.914,95.438,540.461,539.098,0.0
52452.0,STARLINK-3909,PAYLOAD,2023-05-21 21:50:25,15.08828318,9.99e-05,53.2177,340.4276,98.7567,261.3538,-5.7626e-05,-1.204e-05,0.0,0 STARLINK-3909,1 52452U 22049B   23141.91001820 -.00001204  00000-0 -57626-4 0  9996,2 52452  53.2177 340.4276 0000999  98.7567 261.3538 15.08828318 57701,6917.916,95.438,540.472,539.09,0.0
52452.0,STARLINK-3909,PAYLOAD,2023-05-22 05:47:20,15.08836758,9.81e-05,53.2178,338.9408,99.4849,260.6254,3.1104e-05,2.07e-06,0.0,0 STARLINK-3909,1 52452U 22049B   23142.24121299  .00000207  00000-0  31104-4 0  9999,2 52452  53.2178 338.9408 0000981  99.4849 260.6254 15.08836758 57910,6917.89,95.438,540.434,539.077,0.0
52452.0,STARLINK-3909,PAYLOAD,2023-05-22 13:44:16,15.08841942,9.19e-05,53.2172,337.4532,102.2152,257.8943,3.4959e-05,2.69e-06,0.0,0 STARLINK-3909,1 52452U 22049B   23142.57240952  .00000269  00000-0  34959-4 0  9992,2 52452  53.2172 337.4532 0000919 102.2152 257.8943 15.08841942 57809,6917.874,95.437,540.375,539.104,0.0
52452.0,STARLINK-3909,PAYLOAD,2023-05-22 20:05:48,15.08851397,9.79e-05,53.2165,336.2652,108.4253,251.6846,0.00019825,2.87e-05,0.0,0 STARLINK-3909,1 52452U 22049B   23142.83736517  .00002870  00000-0  19825-3 0  9992,2 52452  53.2165 336.2652 0000979 108.4253 251.6846 15.08851397 58009,6917.846,95.437,540.388,539.033,0.0
52452.0,STARLINK-3909,PAYLOAD,2023-05-23 11:59:40,15.08838074,8.86e-05,53.2164,333.2911,106.4307,253.6782,0.00020142,2.919e-05,0.0,0 STARLINK-3909,1 52452U 22049B   23143.49977459  .00002919  00000-0  20142-3 0  9995,2 52452  53.2164 333.2911 0000886 106.4307 253.6782 15.08838074 58107,6917.886,95.438,540.364,539.138,0.0
52452.0,STARLINK-3909,PAYLOAD,2023-05-23 16:45:49,15.08849133,8.67e-05,53.2164,332.3992,104.6677,255.4411,0.00039145,5.949e-05,0.0,0 STARLINK-3909,1 52452U 22049B   23143.69849069  .00005949  00000-0  39145-3 0  9991,2 52452  53.2164 332.3992 0000867 104.6677 255.4411 15.08849133 58135,6917.852,95.437,540.317,539.118,0.0
52452.0,STARLINK-3909,PAYLOAD,2023-05-23 21:31:58,15.08850517,8.24e-05,53.2164,331.5071,103.3971,256.7113,0.00053905,8.304e-05,0.0,0 STARLINK-3909,1 52452U 22049B   23143.89721028  .00008304  00000-0  53905-3 0  9995,2 52452  53.2164 331.5071 0000824 103.3971 256.7113 15.08850517 58007,6917.848,95.437,540.283,539.143,0.0
52452.0,STARLINK-3909,PAYLOAD,2023-05-24 13:25:50,15.08843313,7.51e-05,53.2161,328.5332,98.8716,261.2361,0.00044048,6.73e-05,0.0,0 STARLINK-3909,1 52452U 22049B   23144.55961191  .00006730  00000-0  44048-3 0  9995,2 52452  53.2161 328.5332 0000751  98.8716 261.2361 15.08843313 58264,6917.87,95.437,540.255,539.216,0.0
